{
  "type": "FeatureCollection",
  "features": [
    {
      "type": "Feature",
      "properties": {
        "norad_id": 55973,
        "name": "TIANMU-1 03",
        "group": "weather",
        "lat": -57.65049248025751,
        "lon": 157.2165274694406,
        "alt_km": 453.08743805374615,
        "timestamp": "2025-12-08T15:42:49.421777+00:00",
        "meta_object_name": "TIANMU-1 03",
        "meta_object_id": "2023-039A",
        "meta_epoch": "2025-12-08T06:36:53.199936",
        "meta_mean_motion": 15.40725277,
        "meta_eccentricity": 0.00045345,
        "meta_inclination": 97.5111,
        "meta_ra_of_asc_node": 144.8034,
        "meta_arg_of_pericenter": 73.8781,
        "meta_mean_anomaly": 286.2964,
        "meta_ephemeris_type": 0,
        "meta_classification_type": "U",
        "meta_norad_cat_id": 55973,
        "meta_element_set_no": 999,
        "meta_rev_at_epoch": 15137,
        "meta_bstar": 0.00046706684,
        "meta_mean_motion_dot": 0.00019027,
        "meta_mean_motion_ddot": 0,
        "tle_line1": "1 55973U 23039A   25342.27561574  .00019027  00000+0  46707-3 0  9994",
        "tle_line2": "2 55973  97.5111 144.8034 0004534  73.8781 286.2964 15.40725277151373"
      },
      "geometry": {
        "type": "Point",
        "coordinates": [
          157.2165274694406,
          -57.65049248025751
        ]
      }
    },
    {
      "type": "Feature",
      "properties": {
        "norad_id": 55974,
        "name": "TIANMU-1 04",
        "group": "weather",
        "lat": 50.02523956752642,
        "lon": 135.33889388874027,
        "alt_km": 435.042135628476,
        "timestamp": "2025-12-08T15:42:49.421788+00:00",
        "meta_object_name": "TIANMU-1 04",
        "meta_object_id": "2023-039B",
        "meta_epoch": "2025-12-08T06:08:41.071488",
        "meta_mean_motion": 15.41058508,
        "meta_eccentricity": 0.00051983,
        "meta_inclination": 97.5044,
        "meta_ra_of_asc_node": 143.9763,
        "meta_arg_of_pericenter": 69.4045,
        "meta_mean_anomaly": 290.7758,
        "meta_ephemeris_type": 0,
        "meta_classification_type": "U",
        "meta_norad_cat_id": 55974,
        "meta_element_set_no": 999,
        "meta_rev_at_epoch": 15137,
        "meta_bstar": 0.00046097021,
        "meta_mean_motion_dot": 0.00018988,
        "meta_mean_motion_ddot": 0,
        "tle_line1": "1 55974U 23039B   25342.25603092  .00018988  00000+0  46097-3 0  9992",
        "tle_line2": "2 55974  97.5044 143.9763 0005198  69.4045 290.7758 15.41058508151377"
      },
      "geometry": {
        "type": "Point",
        "coordinates": [
          135.33889388874027,
          50.02523956752642
        ]
      }
    },
    {
      "type": "Feature",
      "properties": {
        "norad_id": 55975,
        "name": "TIANMU-1 05",
        "group": "weather",
        "lat": 82.2617031421873,
        "lon": 68.78240647996266,
        "alt_km": 433.60332783139256,
        "timestamp": "2025-12-08T15:42:49.421801+00:00",
        "meta_object_name": "TIANMU-1 05",
        "meta_object_id": "2023-039C",
        "meta_epoch": "2025-12-08T07:32:20.537376",
        "meta_mean_motion": 15.40685179,
        "meta_eccentricity": 0.00043708,
        "meta_inclination": 97.5089,
        "meta_ra_of_asc_node": 144.528,
        "meta_arg_of_pericenter": 90.4516,
        "meta_mean_anomaly": 269.7231,
        "meta_ephemeris_type": 0,
        "meta_classification_type": "U",
        "meta_norad_cat_id": 55975,
        "meta_element_set_no": 999,
        "meta_rev_at_epoch": 15136,
        "meta_bstar": 0.0004648669,
        "meta_mean_motion_dot": 0.00018912,
        "meta_mean_motion_ddot": 0,
        "tle_line1": "1 55975U 23039C   25342.31412659  .00018912  00000+0  46487-3 0  9997",
        "tle_line2": "2 55975  97.5089 144.5280 0004370  90.4516 269.7231 15.40685179151366"
      },
      "geometry": {
        "type": "Point",
        "coordinates": [
          68.78240647996266,
          82.2617031421873
        ]
      }
    },
    {
      "type": "Feature",
      "properties": {
        "norad_id": 55976,
        "name": "TIANMU-1 06",
        "group": "weather",
        "lat": 37.3720457956663,
        "lon": 139.5566349898626,
        "alt_km": 437.97084637701937,
        "timestamp": "2025-12-08T15:42:49.421812+00:00",
        "meta_object_name": "TIANMU-1 06",
        "meta_object_id": "2023-039D",
        "meta_epoch": "2025-12-08T06:12:02.096640",
        "meta_mean_motion": 15.41110889,
        "meta_eccentricity": 0.00047003,
        "meta_inclination": 97.5101,
        "meta_ra_of_asc_node": 144.9323,
        "meta_arg_of_pericenter": 85.9317,
        "meta_mean_anomaly": 274.2466,
        "meta_ephemeris_type": 0,
        "meta_classification_type": "U",
        "meta_norad_cat_id": 55976,
        "meta_element_set_no": 999,
        "meta_rev_at_epoch": 15137,
        "meta_bstar": 0.00045684925,
        "meta_mean_motion_dot": 0.00018848,
        "meta_mean_motion_ddot": 0,
        "tle_line1": "1 55976U 23039D   25342.25835760  .00018848  00000+0  45685-3 0  9990",
        "tle_line2": "2 55976  97.5101 144.9323 0004700  85.9317 274.2466 15.41110889151373"
      },
      "geometry": {
        "type": "Point",
        "coordinates": [
          139.5566349898626,
          37.3720457956663
        ]
      }
    },
    {
      "type": "Feature",
      "properties": {
        "norad_id": 56232,
        "name": "FENGYUN 3G",
        "group": "weather",
        "lat": -49.701962224682426,
        "lon": 150.59507774172823,
        "alt_km": 416.02093296025214,
        "timestamp": "2025-12-08T15:42:49.421822+00:00",
        "meta_object_name": "FENGYUN 3G",
        "meta_object_id": "2023-055A",
        "meta_epoch": "2025-12-08T05:18:54.436032",
        "meta_mean_motion": 15.53244582,
        "meta_eccentricity": 0.00092148,
        "meta_inclination": 49.9938,
        "meta_ra_of_asc_node": 250.7645,
        "meta_arg_of_pericenter": 127.1084,
        "meta_mean_anomaly": 233.0726,
        "meta_ephemeris_type": 0,
        "meta_classification_type": "U",
        "meta_norad_cat_id": 56232,
        "meta_element_set_no": 999,
        "meta_rev_at_epoch": 15032,
        "meta_bstar": 0.00061486039,
        "meta_mean_motion_dot": 0.00039258,
        "meta_mean_motion_ddot": 0,
        "tle_line1": "1 56232U 23055A   25342.22146338  .00039258  00000+0  61486-3 0  9992",
        "tle_line2": "2 56232  49.9938 250.7645 0009214 127.1084 233.0726 15.53244582150323"
      },
      "geometry": {
        "type": "Point",
        "coordinates": [
          150.59507774172823,
          -49.701962224682426
        ]
      }
    },
    {
      "type": "Feature",
      "properties": {
        "norad_id": 57166,
        "name": "METEOR-M2 3",
        "group": "weather",
        "lat": -17.31805555209321,
        "lon": -146.45162867112097,
        "alt_km": 819.6369520397611,
        "timestamp": "2025-12-08T15:42:49.421833+00:00",
        "meta_object_name": "METEOR-M2 3",
        "meta_object_id": "2023-091A",
        "meta_epoch": "2025-12-08T06:21:29.069856",
        "meta_mean_motion": 14.24025358,
        "meta_eccentricity": 0.00041587,
        "meta_inclination": 98.6385,
        "meta_ra_of_asc_node": 35.8823,
        "meta_arg_of_pericenter": 21.1148,
        "meta_mean_anomaly": 339.0201,
        "meta_ephemeris_type": 0,
        "meta_classification_type": "U",
        "meta_norad_cat_id": 57166,
        "meta_element_set_no": 999,
        "meta_rev_at_epoch": 12734,
        "meta_bstar": 4.5122806e-05,
        "meta_mean_motion_dot": 6e-07,
        "meta_mean_motion_ddot": 0,
        "tle_line1": "1 57166U 23091A   25342.26491979  .00000060  00000+0  45123-4 0  9997",
        "tle_line2": "2 57166  98.6385  35.8823 0004158  21.1148 339.0201 14.24025358127349"
      },
      "geometry": {
        "type": "Point",
        "coordinates": [
          -146.45162867112097,
          -17.31805555209321
        ]
      }
    },
    {
      "type": "Feature",
      "properties": {
        "norad_id": 57399,
        "name": "TIANMU-1 07",
        "group": "weather",
        "lat": -61.55984722675767,
        "lon": 46.262377372138864,
        "alt_km": 492.52298207426156,
        "timestamp": "2025-12-08T15:42:49.421843+00:00",
        "meta_object_name": "TIANMU-1 07",
        "meta_object_id": "2023-101A",
        "meta_epoch": "2025-12-08T06:33:23.139072",
        "meta_mean_motion": 15.2797354,
        "meta_eccentricity": 0.0005632,
        "meta_inclination": 97.2877,
        "meta_ra_of_asc_node": 32.2217,
        "meta_arg_of_pericenter": 92.7603,
        "meta_mean_anomaly": 267.4281,
        "meta_ephemeris_type": 0,
        "meta_classification_type": "U",
        "meta_norad_cat_id": 57399,
        "meta_element_set_no": 999,
        "meta_rev_at_epoch": 13247,
        "meta_bstar": 0.00036081818,
        "meta_mean_motion_dot": 9.783e-05,
        "meta_mean_motion_ddot": 0,
        "tle_line1": "1 57399U 23101A   25342.27318448  .00009783  00000+0  36082-3 0  9991",
        "tle_line2": "2 57399  97.2877  32.2217 0005632  92.7603 267.4281 15.27973540132475"
      },
      "geometry": {
        "type": "Point",
        "coordinates": [
          46.262377372138864,
          -61.55984722675767
        ]
      }
    }
  ]
}